start=new Date('2022-11-08T00:00:00.000Z').valueOf();
sats=[{"LAUNCH_DATE":"2020-01-29","APOAPSIS":"548.522","ELEMENT_SET_NO":"999","GP_ID":"217103190","ARG_OF_PERICENTER":"48.6675","FILE":"3648233","CENTER_NAME":"EARTH","MEAN_MOTION":"15.06395922","PERIAPSIS":"545.930","OBJECT_ID":"2020-006AW","EPHEMERIS_TYPE":"0","COUNTRY_CODE":"US","RA_OF_ASC_NODE":"314.3626","TIME_SYSTEM":"UTC","REV_AT_EPOCH":"15344","OBJECT_NAME":"STARLINK-1183","MEAN_MOTION_DDOT":"0.0000000000000","MEAN_MOTION_DOT":"-0.00000576","CLASSIFICATION_TYPE":"U","NORAD_CAT_ID":"45088","PERIOD":"95.592","SITE":"AFETR","TLE_LINE2":"2 45088  53.0542 314.3626 0001872  48.6675 311.4475 15.06395922153449","INCLINATION":"53.0542","MEAN_ANOMALY":"311.4475","DECAY_DATE":null,"EPOCH":"2022-11-07T16:52:10.262784","REF_FRAME":"TEME","BSTAR":"-0.00001979300000","OBJECT_TYPE":"PAYLOAD","RCS_SIZE":"LARGE","TLE_LINE1":"1 45088U 20006AW  22311.70289656 -.00000576  00000-0 -19793-4 0  9998","ECCENTRICITY":"0.00018720","SEMIMAJOR_AXIS":"6925.361","MEAN_ELEMENT_THEORY":"SGP4"},{"PERIOD":"95.593","CLASSIFICATION_TYPE":"U","NORAD_CAT_ID":"45089","MEAN_MOTION_DOT":"0.00001875","MEAN_MOTION_DDOT":"0.0000000000000","OBJECT_NAME":"STARLINK-1136","SITE":"AFETR","MEAN_ANOMALY":"297.7820","INCLINATION":"53.0555","TLE_LINE2":"2 45089  53.0555 315.6239 0001693  62.3341 297.7820 15.06391371153413","MEAN_ELEMENT_THEORY":"SGP4","ECCENTRICITY":"0.00016930","TLE_LINE1":"1 45089U 20006AX  22311.44489343  .00001875  00000-0  14477-3 0  9999","RCS_SIZE":"LARGE","SEMIMAJOR_AXIS":"6925.375","BSTAR":"0.00014477000000","OBJECT_TYPE":"PAYLOAD","EPOCH":"2022-11-07T10:40:38.792352","REF_FRAME":"TEME","DECAY_DATE":null,"GP_ID":"217103441","ELEMENT_SET_NO":"999","APOAPSIS":"548.412","LAUNCH_DATE":"2020-01-29","MEAN_MOTION":"15.06391371","PERIAPSIS":"546.068","CENTER_NAME":"EARTH","FILE":"3648233","ARG_OF_PERICENTER":"62.3341","EPHEMERIS_TYPE":"0","OBJECT_ID":"2020-006AX","REV_AT_EPOCH":"15341","RA_OF_ASC_NODE":"315.6239","TIME_SYSTEM":"UTC","COUNTRY_CODE":"US"},{"OBJECT_ID":"2020-006AY","EPHEMERIS_TYPE":"0","COUNTRY_CODE":"US","REV_AT_EPOCH":"15338","TIME_SYSTEM":"UTC","RA_OF_ASC_NODE":"316.2315","LAUNCH_DATE":"2020-01-29","ELEMENT_SET_NO":"999","GP_ID":"217102190","APOAPSIS":"548.295","ARG_OF_PERICENTER":"61.5388","CENTER_NAME":"EARTH","PERIAPSIS":"546.128","MEAN_MOTION":"15.06400687","FILE":"3648233","TLE_LINE2":"2 45090  53.0530 316.2315 0001564  61.5388 298.5759 15.06400687153386","INCLINATION":"53.0530","MEAN_ANOMALY":"298.5759","BSTAR":"0.00050599000000","OBJECT_TYPE":"PAYLOAD","DECAY_DATE":null,"EPOCH":"2022-11-07T06:56:21.124896","REF_FRAME":"TEME","MEAN_ELEMENT_THEORY":"SGP4","TLE_LINE1":"1 45090U 20006AY  22311.28913339  .00007263  00000-0  50599-3 0  9992","ECCENTRICITY":"0.00015640","RCS_SIZE":"LARGE","SEMIMAJOR_AXIS":"6925.346","MEAN_MOTION_DDOT":"0.0000000000000","OBJECT_NAME":"STARLINK-1176","PERIOD":"95.592","MEAN_MOTION_DOT":"0.00007263","NORAD_CAT_ID":"45090","CLASSIFICATION_TYPE":"U","SITE":"AFETR"},{"SITE":"AFETR","NORAD_CAT_ID":"45092","CLASSIFICATION_TYPE":"U","MEAN_MOTION_DOT":"0.00000418","PERIOD":"95.592","OBJECT_NAME":"STARLINK-1137","MEAN_MOTION_DDOT":"0.0000000000000","SEMIMAJOR_AXIS":"6925.349","TLE_LINE1":"1 45092U 20006BA  22311.39696250  .00000418  00000-0  46954-4 0  9992","RCS_SIZE":"LARGE","ECCENTRICITY":"0.00016830","MEAN_ELEMENT_THEORY":"SGP4","REF_FRAME":"TEME","EPOCH":"2022-11-07T09:31:37.560000","DECAY_DATE":null,"OBJECT_TYPE":"PAYLOAD","BSTAR":"0.00004695400000","MEAN_ANOMALY":"305.9733","INCLINATION":"53.0539","TLE_LINE2":"2 45092  53.0539 315.7555 0001683  54.1413 305.9733 15.06400015153397","FILE":"3648233","PERIAPSIS":"546.048","MEAN_MOTION":"15.06400015","CENTER_NAME":"EARTH","ARG_OF_PERICENTER":"54.1413","APOAPSIS":"548.379","GP_ID":"217102440","ELEMENT_SET_NO":"999","LAUNCH_DATE":"2020-01-29","TIME_SYSTEM":"UTC","RA_OF_ASC_NODE":"315.7555","REV_AT_EPOCH":"15339","COUNTRY_CODE":"US","EPHEMERIS_TYPE":"0","OBJECT_ID":"2020-006BA"},{"LAUNCH_DATE":"2020-01-29","APOAPSIS":"548.500","ELEMENT_SET_NO":"999","GP_ID":"217103689","ARG_OF_PERICENTER":"52.9370","FILE":"3648233","CENTER_NAME":"EARTH","PERIAPSIS":"545.982","MEAN_MOTION":"15.06391170","OBJECT_ID":"2020-006BB","EPHEMERIS_TYPE":"0","COUNTRY_CODE":"US","TIME_SYSTEM":"UTC","RA_OF_ASC_NODE":"315.7680","REV_AT_EPOCH":"15339","OBJECT_NAME":"STARLINK-1142","MEAN_MOTION_DDOT":"0.0000000000000","MEAN_MOTION_DOT":"-0.00000211","CLASSIFICATION_TYPE":"U","NORAD_CAT_ID":"45093","PERIOD":"95.593","SITE":"AFETR","TLE_LINE2":"2 45093  53.0542 315.7680 0001818  52.9370 307.1785 15.06391170153391","INCLINATION":"53.0542","MEAN_ANOMALY":"307.1785","DECAY_DATE":null,"EPOCH":"2022-11-07T09:26:19.281408","REF_FRAME":"TEME","OBJECT_TYPE":"PAYLOAD","BSTAR":"0.00000473750000","TLE_LINE1":"1 45093U 20006BB  22311.39327872 -.00000211  00000-0  47375-5 0  9995","RCS_SIZE":"LARGE","ECCENTRICITY":"0.00018180","SEMIMAJOR_AXIS":"6925.376","MEAN_ELEMENT_THEORY":"SGP4"},{"LAUNCH_DATE":"2020-01-29","GP_ID":"217103940","ELEMENT_SET_NO":"999","APOAPSIS":"548.610","ARG_OF_PERICENTER":"51.8785","PERIAPSIS":"545.806","MEAN_MOTION":"15.06401843","CENTER_NAME":"EARTH","FILE":"3648233","OBJECT_ID":"2020-006BC","EPHEMERIS_TYPE":"0","COUNTRY_CODE":"US","REV_AT_EPOCH":"15340","TIME_SYSTEM":"UTC","RA_OF_ASC_NODE":"315.6937","MEAN_MOTION_DDOT":"0.0000000000000","OBJECT_NAME":"STARLINK-1146","PERIOD":"95.592","NORAD_CAT_ID":"45094","CLASSIFICATION_TYPE":"U","MEAN_MOTION_DOT":"0.00006029","SITE":"AFETR","TLE_LINE2":"2 45094  53.0540 315.6937 0002024  51.8785 308.2386 15.06401843153402","MEAN_ANOMALY":"308.2386","INCLINATION":"53.0540","BSTAR":"0.00042330000000","OBJECT_TYPE":"PAYLOAD","EPOCH":"2022-11-07T09:46:11.213472","REF_FRAME":"TEME","DECAY_DATE":null,"MEAN_ELEMENT_THEORY":"SGP4","TLE_LINE1":"1 45094U 20006BC  22311.40707423  .00006029  00000-0  42330-3 0  9998","ECCENTRICITY":"0.00020240","RCS_SIZE":"LARGE","SEMIMAJOR_AXIS":"6925.343"},{"APOAPSIS":"549.018","GP_ID":"217102690","ELEMENT_SET_NO":"999","LAUNCH_DATE":"2020-01-29","FILE":"3648233","PERIAPSIS":"545.404","MEAN_MOTION":"15.06400802","CENTER_NAME":"EARTH","ARG_OF_PERICENTER":"41.9817","EPHEMERIS_TYPE":"0","OBJECT_ID":"2020-006BD","TIME_SYSTEM":"UTC","RA_OF_ASC_NODE":"315.0745","REV_AT_EPOCH":"15342","COUNTRY_CODE":"US","CLASSIFICATION_TYPE":"U","NORAD_CAT_ID":"45095","MEAN_MOTION_DOT":"0.00004398","PERIOD":"95.592","OBJECT_NAME":"STARLINK-1147","MEAN_MOTION_DDOT":"0.0000000000000","SITE":"AFETR","MEAN_ANOMALY":"318.1372","INCLINATION":"53.0550","TLE_LINE2":"2 45095  53.0550 315.0745 0002609  41.9817 318.1372 15.06400802153421","ECCENTRICITY":"0.00026090","TLE_LINE1":"1 45095U 20006BD  22311.54345987  .00004398  00000-0  31400-3 0  9990","RCS_SIZE":"LARGE","SEMIMAJOR_AXIS":"6925.346","MEAN_ELEMENT_THEORY":"SGP4","EPOCH":"2022-11-07T13:02:34.932768","REF_FRAME":"TEME","DECAY_DATE":null,"OBJECT_TYPE":"PAYLOAD","BSTAR":"0.00031400000000"},{"OBJECT_ID":"2020-006BE","EPHEMERIS_TYPE":"0","COUNTRY_CODE":"US","RA_OF_ASC_NODE":"316.0064","TIME_SYSTEM":"UTC","REV_AT_EPOCH":"15338","LAUNCH_DATE":"2020-01-29","APOAPSIS":"548.575","ELEMENT_SET_NO":"999","GP_ID":"217102939","ARG_OF_PERICENTER":"48.1540","FILE":"3648233","CENTER_NAME":"EARTH","PERIAPSIS":"545.792","MEAN_MOTION":"15.06409794","TLE_LINE2":"2 45096  53.0557 316.0064 0002009  48.1540 311.9620 15.06409794153381","INCLINATION":"53.0557","MEAN_ANOMALY":"311.9620","DECAY_DATE":null,"EPOCH":"2022-11-07T08:06:41.685408","REF_FRAME":"TEME","BSTAR":"0.00042038000000","OBJECT_TYPE":"PAYLOAD","RCS_SIZE":"LARGE","TLE_LINE1":"1 45096U 20006BE  22311.33798247  .00005987  00000-0  42038-3 0  9993","ECCENTRICITY":"0.00020090","SEMIMAJOR_AXIS":"6925.319","MEAN_ELEMENT_THEORY":"SGP4","OBJECT_NAME":"STARLINK-1152","MEAN_MOTION_DDOT":"0.0000000000000","MEAN_MOTION_DOT":"0.00005987","NORAD_CAT_ID":"45096","CLASSIFICATION_TYPE":"U","PERIOD":"95.592","SITE":"AFETR"},{"TLE_LINE2":"2 45098  53.0562 314.3036 0001851  55.3585 304.7579 15.06386603153445","INCLINATION":"53.0562","MEAN_ANOMALY":"304.7579","DECAY_DATE":null,"EPOCH":"2022-11-07T17:13:24.436416","REF_FRAME":"TEME","BSTAR":"0.00010557000000","OBJECT_TYPE":"PAYLOAD","RCS_SIZE":"LARGE","TLE_LINE1":"1 45098U 20006BG  22311.71764394  .00001291  00000-0  10557-3 0  9998","SEMIMAJOR_AXIS":"6925.390","ECCENTRICITY":"0.00018510","MEAN_ELEMENT_THEORY":"SGP4","OBJECT_NAME":"STARLINK-1184","MEAN_MOTION_DDOT":"0.0000000000000","MEAN_MOTION_DOT":"0.00001291","NORAD_CAT_ID":"45098","CLASSIFICATION_TYPE":"U","PERIOD":"95.593","SITE":"AFETR","OBJECT_ID":"2020-006BG","EPHEMERIS_TYPE":"0","COUNTRY_CODE":"US","RA_OF_ASC_NODE":"314.3036","TIME_SYSTEM":"UTC","REV_AT_EPOCH":"15344","LAUNCH_DATE":"2020-01-29","APOAPSIS":"548.537","ELEMENT_SET_NO":"999","GP_ID":"217103191","ARG_OF_PERICENTER":"55.3585","FILE":"3648233","CENTER_NAME":"EARTH","MEAN_MOTION":"15.06386603","PERIAPSIS":"545.973"},{"DECAY_DATE":null,"REF_FRAME":"TEME","EPOCH":"2022-11-07T10:03:28.521504","BSTAR":"0.00008553500000","OBJECT_TYPE":"PAYLOAD","SEMIMAJOR_AXIS":"6925.380","TLE_LINE1":"1 45099U 20006BH  22311.41908011  .00000992  00000-0  85535-4 0  9998","RCS_SIZE":"LARGE","ECCENTRICITY":"0.00018860","MEAN_ELEMENT_THEORY":"SGP4","TLE_LINE2":"2 45099  53.0541 315.6593 0001886  45.4197 314.6946 15.06389608153404","INCLINATION":"53.0541","MEAN_ANOMALY":"314.6946","SITE":"AFETR","OBJECT_NAME":"STARLINK-1186","MEAN_MOTION_DDOT":"0.0000000000000","MEAN_MOTION_DOT":"0.00000992","CLASSIFICATION_TYPE":"U","NORAD_CAT_ID":"45099","PERIOD":"95.593","COUNTRY_CODE":"US","TIME_SYSTEM":"UTC","RA_OF_ASC_NODE":"315.6593","REV_AT_EPOCH":"15340","OBJECT_ID":"2020-006BH","EPHEMERIS_TYPE":"0","ARG_OF_PERICENTER":"45.4197","FILE":"3648233","CENTER_NAME":"EARTH","MEAN_MOTION":"15.06389608","PERIAPSIS":"545.939","LAUNCH_DATE":"2020-01-29","APOAPSIS":"548.552","ELEMENT_SET_NO":"999","GP_ID":"217103442"}];
